C/2011 G1 (McNaught),h,09/15.9021/2011,162.2395,152.9805,355.0163,1.000666,2.162250,2000,12.0,4.0
# From MPC 95730
C/2011 J2 (LINEAR),h,12/25.5776/2013,122.8051,163.9435,85.3286,1.001312,3.443847,2000,5.5,3.6
# From MPEC 2015-K84
C/2011 J2-B (LINEAR),h,12/25.4546/2013,122.8078,163.9399,85.2860,1.002074,3.443047,2000,9.0,3.6
# From unp
C/2011 J2-C (LINEAR),h,12/25.5472/2013,122.8031,163.9451,85.3032,1.002110,3.442885,2000,11.0,3.6
# From MPC 75713
C/2011 J3 (LINEAR),e,114.4540,21.5759,27.8585,19.65287,0.0113127,0.92628219,20.2363,12/18.0/2015,2000,g 15.0,4.0
# From MPC 82317
P/2011 JB15 (Spacewatch-Boattini),e,19.1574,153.7365,110.5852,7.344080,0.0495220,0.31779077,70.7783,12/18.0/2015,2000,g  9.0,4.0
# From MPC 75516
C/2011 K1 (Schwartz-Holvorcem),e,122.5986,70.6661,166.8906,3885,0.0000041,0.99913266,0.0000,04/20.4606/2011,2000,g 12.0,4.0
# From MPC 96864
C/2011 KP36 (Spacewatch),e,18.9866,173.4005,180.6103,38.39569,0.0041427,0.87281897,359.3330,12/18.0/2015,2000,g  4.5,4.0
# From MPC 83518
C/2011 L1 (McNaught),e,65.4956,252.2629,294.3879,11.02582,0.0269208,0.79733652,49.1277,12/18.0/2015,2000,g 11.0,4.0
# From MPC 78588
C/2011 L2 (McNaught),e,104.2983,131.3680,256.9870,8721,0.0000012,0.99977680,0.0000,10/30.5094/2011,2000,g 12.5,4.0
# From MPC 77405
C/2011 L3 (McNaught),e,87.1309,307.7569,27.6428,1060,0.0000285,0.99818542,0.0000,08/08.8565/2011,2000,g 12.5,4.0
# From MPC 94278
C/2011 L4 (PANSTARRS),h,03/10.0107/2013,84.0822,65.8117,333.6810,1.000022,0.302614,2000,5.5,4.0
# From MPC 82718
C/2011 L6 (Boattini),e,171.4431,214.4336,331.3487,29510,0.0000002,0.99977011,0.0000,01/18.4468/2011,2000,g  9.0,4.0
# From MPC 75714
C/2011 M1 (LINEAR),h,09/06.8062/2011,70.1587,324.6956,119.7575,1.002466,0.902724,2000,12.0,4.0
# From MPC 87913
P/2011 N1 (ASH),e,35.6873,77.6485,330.6556,6.263213,0.0628794,0.54411461,81.6529,12/18.0/2015,2000,g 11.5,4.0
# From MPC 75714
P/2011 NO1 (Elenin),e,15.2549,296.0713,263.5485,5.519529,0.0760066,0.77603586,136.1218,12/18.0/2015,2000,g 15.0,4.0
# From MPC 76569
C/2011 N2 (McNaught),e,33.6967,273.9611,356.9264,1258,0.0000221,0.99796907,0.0000,10/18.6776/2011,2000,g 11.5,4.0
# From MPC 87476
C/2011 O1 (LINEAR),e,76.5258,89.8009,232.3484,714.0889,0.0000517,0.99455143,0.0000,08/17.7832/2012,2000,g  7.0,4.0
# From MPC 78186
P/2011 P1 (McNaught),e,5.6449,4.3072,349.2269,7.496424,0.0480201,0.32423627,95.2165,12/18.0/2015,2000,g  9.0,4.0
# From MPC 84931
C/2011 P2 (PANSTARRS),e,9.0032,203.9821,75.9393,9.713945,0.0325545,0.36870268,62.7311,12/18.0/2015,2000,g  8.5,4.0
# From MPC 79867
C/2011 Q1 (PANSTARRS),e,94.9096,142.2386,135.8525,4122,0.0000037,0.99835695,0.0000,06/29.2944/2011,2000,g  9.5,4.0
# From MPC 79342
C/2011 Q2 (McNaught),e,37.1669,287.1257,34.8889,900.8429,0.0000365,0.99849436,0.0000,01/17.8233/2012,2000,g 10.0,4.0
# From MPC 77806
P/2011 Q3 (McNaught),e,6.0468,32.1232,311.0974,4.966766,0.0890417,0.53306771,142.4560,12/18.0/2015,2000,g 13.5,4.0
# From MPC 79342
C/2011 Q4 (SWAN),e,147.8665,252.0690,1.8572,41.17647,0.0037302,0.97288211,0.0000,09/19.2469/2011,2000,g 12.5,4.0
# From MPC 88325
C/2011 R1 (McNaught),e,116.1683,221.3518,308.7877,47535,0.0000001,0.99995625,0.0000,10/19.1032/2012,2000,g  6.5,4.0
# From MPC 90269
P/2011 R3 (Novichonok-Gerke),e,19.2507,190.3864,224.3149,4.816783,0.0932327,0.26325935,126.9205,12/18.0/2015,2000,g 11.0,4.0
# From MPC 91611
P/2011 S1 (Gibbs),e,2.6818,218.9121,193.6079,8.632518,0.0388596,0.20145849,18.5269,12/18.0/2015,2000,g  8.0,4.0
# From MPC 80897
C/2011 S2 (Kowalski),e,17.5788,288.0393,192.3092,16.44404,0.0147806,0.93199868,22.3702,12/18.0/2015,2000,g 15.5,4.0
# From MPC 78186
P/2011 U1 (PANSTARRS),e,15.2442,134.9792,353.3566,4.052362,0.1208208,0.41769937,154.0235,12/18.0/2015,2000,g 14.5,4.0
# From MPC 93583
P/2011 U2 (Bressi),e,9.6958,265.5396,141.9225,5.195672,0.0832226,0.08548658,124.2819,12/18.0/2015,2000,g 10.0,4.0
# From MPC 78186
C/2011 U3 (PANSTARRS),e,116.7302,228.2544,287.7099,2921,0.0000062,0.99963386,0.0000,06/03.5539/2012,2000,g 14.0,4.0
# From MPC 79022
P/2011 UA134 (Spacewatch-PANSTARRS),e,10.5110,40.6468,32.5293,5.593296,0.0745079,0.63113323,109.7390,12/18.0/2015,2000,g 17.5,4.0
# From MPC 88325
C/2011 UF305 (LINEAR),e,94.0007,297.4739,121.9949,3632,0.0000045,0.99941039,0.0000,07/21.4308/2012,2000,g  9.0,4.0
# From MPC 77406
P/2011 V1 (Boattini),e,7.2665,48.8581,268.2269,3.818466,0.1320902,0.56223240,226.1955,12/18.0/2015,2000,g 15.5,4.0
# From MPC 79022
P/2011 VJ5 (Lemmon),e,3.9750,169.9215,315.2725,3.404347,0.1569110,0.55740460,230.5772,12/18.0/2015,2000,g 17.5,4.0
# From MPC 82718
P/2011 W1 (PANSTARRS),e,3.7172,161.8409,282.7746,4.656391,0.0980912,0.28673540,139.8256,12/18.0/2015,2000,g 11.5,4.0
# From MPC 80897
P/2011 W2 (Rinner),e,13.7609,231.9947,221.2978,3.804856,0.1327996,0.39318100,199.5419,12/18.0/2015,2000,g 13.0,4.0
# From MPC 77807
C/2011 W3 (Lovejoy),e,134.6626,326.9579,53.9801,71.24698,0.0016389,0.99991784,0.0000,12/14.9941/2011,2000,g 14.5,4.0
# From MPC 79342
P/2011 Y2 (Boattini),e,6.3547,309.7144,131.6963,6.235476,0.0632994,0.71170635,86.5300,12/18.0/2015,2000,g 15.0,4.0
# From MPC 79342
C/2011 Y3 (Boattini),e,26.5182,84.8324,340.7088,11.80069,0.0243133,0.70285822,38.4068,12/18.0/2015,2000,g  8.0,4.0
# From MPC 93583
C/2012 A1 (PANSTARRS),h,12/04.1230/2013,120.9188,277.9837,192.0661,1.001666,7.604877,2000,6.0,4.0
# From MPC 91611
C/2012 A2 (LINEAR),e,125.8986,191.4217,101.7394,1140,0.0000256,0.99689604,0.0000,11/05.5704/2012,2000,g  8.5,4.0
# From MPC 80898
P/2012 A3 (SOHO),e,11.4573,176.4042,217.7386,2.569996,0.2392244,0.77543640,340.2660,12/18.0/2015,2000,g 17.0,4.0
# From MPC 94669
P/2012 B1 (PANSTARRS),e,7.6232,36.1688,162.2940,6.506709,0.0593830,0.41198883,52.0877,12/18.0/2015,2000,g  9.0,4.0
# From MPC 82719
C/2012 B3 (La Sagra),e,106.9729,252.9865,50.7524,3994,0.0000039,0.99911324,0.0000,12/05.8805/2011,2000,g 10.0,4.0
# From MPC 83519
C/2012 BJ98 (Lemmon),e,2.6373,124.0245,72.9783,17.19337,0.0138249,0.87463717,16.3563,12/18.0/2015,2000,g 12.5,4.0
# From MPC 89309
C/2012 C1 (McNaught),e,96.2695,300.6322,279.9004,2690,0.0000071,0.99820203,0.0000,02/04.9564/2013,2000,g  7.5,4.0
# From MPC 80898
C/2012 C2 (Bruenjes),h,03/13.1648/2012,162.8010,118.0139,62.6679,1.002953,0.799772,2000,17.0,4.0
# From MPC 78590
P/2012 C3 (PANSTARRS),e,9.0920,135.3677,344.9542,9.748681,0.0323806,0.63011148,359.9758,10/06.0/2011,2000,g 13.0,4.0
# From MPC 84022
C/2012 CH17 (MOSS),e,27.7468,125.9608,137.8940,2261,0.0000092,0.99942887,0.0000,09/28.4115/2012,2000,g 11.0,4.0
# From MPC 84022
C/2012 E1 (Hill),e,122.5544,286.3190,48.7881,1170,0.0000246,0.99358795,0.0000,07/01.2111/2011,2000,g  6.5,4.0
# From MPC 79023
C/2012 E2 (SWAN),p,03/15.0314/2012,144.2218,83.3435,0.006952,7.7078,2000,10.0,4.0
# From MPC 82318
C/2012 E3 (PANSTARRS),e,105.5719,5.5015,103.4679,210.8201,0.0003220,0.98183626,0.0000,05/11.5866/2011,2000,g 10.0,4.0
# From MPC 79868
C/2012 F1 (Gibbs),e,159.5519,130.2886,300.7880,71.75740,0.0016215,0.96433363,2.2689,12/18.0/2015,2000,g 14.0,4.0
# From MPC 84931
P/2012 F2 (PANSTARRS),e,14.7317,227.0971,33.1072,6.322849,0.0619919,0.54237563,60.8848,12/18.0/2015,2000,g 12.0,4.0
# From MPC 96864
C/2012 F3 (PANSTARRS),h,04/06.6904/2015,11.3550,164.6111,104.0226,1.002101,3.456823,2000,6.5,4.0
# From MPC 96864
P/2012 F5 (Gibbs),e,9.7400,216.8375,178.1766,3.003498,0.1893490,0.04101680,34.9417,12/18.0/2015,2000,g 12.0,4.0
# From MPC 90766
C/2012 F6 (Lemmon),e,82.6132,332.7416,304.8956,425.9872,0.0001121,0.99828992,0.0000,03/24.5857/2013,2000,g 10.0,4.0
# From MPC 79344
P/2012 G1 (PANSTARRS),e,11.6925,282.5440,286.1149,4.172871,0.1156250,0.38072240,359.9500,06/01.0/2012,2000,g 15.0,4.0
# From MPC 80046
C/2012 H2 (McNaught),e,92.7939,184.0643,295.9272,16.10342,0.0152520,0.89317102,20.1929,12/18.0/2015,2000,g 15.5,4.0
# From MPC 89726
C/2012 J1 (Catalina),h,12/06.7741/2012,34.0911,235.0947,147.4439,1.001966,3.162974,2000,8.0,4.0
# From MPC 96864
C/2012 K1 (PANSTARRS),h,08/27.6873/2014,142.4259,317.7414,203.1230,1.000356,1.054845,2000,5.6,3.2
# From MPC 80898
P/2012 K3 (Gibbs),e,13.2006,125.8753,172.3625,3.619114,0.1431531,0.42420695,168.2341,12/18.0/2015,2000,g 15.0,4.0
# From MPC 88326
C/2012 K5 (LINEAR),e,92.8422,279.1071,139.3463,688.8062,0.0000545,0.99833792,0.0000,11/28.4100/2012,2000,g 12.0,4.0
# From MPC 94278
C/2012 K6 (McNaught),e,135.2211,206.9163,338.8515,1545,0.0000162,0.99782831,0.0000,05/20.9989/2013,2000,g  8.5,4.0
# From MPC 95731
C/2012 K8 (Lemmon),h,08/19.4024/2014,106.1126,312.8051,75.8632,1.000412,6.463515,2000,6.0,4.0
# From MPC 88326
C/2012 L1 (LINEAR),e,87.2336,271.8031,140.2393,617.6889,0.0000642,0.99633568,0.0000,12/24.9305/2012,2000,g 10.5,4.0
# From MPC 88326
C/2012 L2 (LINEAR),e,70.9516,270.3200,205.8428,636.0961,0.0000614,0.99762424,0.0000,05/09.3107/2013,2000,g 10.0,4.0
# From MPC 84023
C/2012 L3 (LINEAR),e,134.1549,53.4580,106.9492,310.9808,0.0001797,0.99022429,0.0000,06/11.6471/2012,2000,g 13.0,4.0
# From MPC 96864
C/2012 LP26 (Palomar),e,25.3801,153.9871,145.1488,10511,0.0000009,0.99937819,0.0000,08/16.5199/2015,2000,g  6.5,4.0
# From MPC 88326
P/2012 NJ (La Sagra),e,84.3802,315.7684,338.3130,8.463029,0.0400327,0.84761506,51.3811,12/18.0/2015,2000,g 14.5,4.0
# From MPC 84625
C/2012 OP (Siding Spring),e,114.8266,267.3390,351.3310,744.7275,0.0000485,0.99515951,0.0000,12/04.0327/2012,2000,g 13.5,2.0
# From MPC 81470
P/2012 O1 (McNaught),e,7.5344,94.2807,236.5394,3.511754,0.1497677,0.60494443,185.6053,12/18.0/2015,2000,g 17.5,4.0
# From MPC 80899
P/2012 O2 (McNaught),e,24.5165,120.7530,183.4955,3.615050,0.1433945,0.53355450,182.8266,12/18.0/2015,2000,g 17.0,4.0
# From MPC 82720
P/2012 O3 (McNaught),e,16.5772,336.4078,344.7051,4.581414,0.1005090,0.64555727,122.8226,12/18.0/2015,2000,g 16.5,4.0
# From MPC 90767
C/2012 Q1 (Kowalski),e,45.2296,184.4289,139.0897,25.99628,0.0074360,0.63548523,10.4946,12/18.0/2015,2000,g  4.0,4.0
# From MPC 89726
C/2012 S1 (ISON),h,11/28.5419/2013,62.1447,295.7593,345.6018,1.000263,0.012911,2000,8.5,3.2
# From MPC 82720
